COMMENT,ORIGINATOR,NORAD_CAT_ID,OBJECT_NAME,OBJECT_TYPE,CLASSIFICATION_TYPE,INTLDES,EPOCH,EPOCH_MICROSECONDS,MEAN_MOTION,ECCENTRICITY,INCLINATION,RA_OF_ASC_NODE,ARG_OF_PERICENTER,MEAN_ANOMALY,EPHEMERIS_TYPE,ELEMENT_SET_NO,REV_AT_EPOCH,BSTAR,MEAN_MOTION_DOT,MEAN_MOTION_DDOT,FILE,TLE_LINE0,TLE_LINE1,TLE_LINE2,OBJECT_ID,OBJECT_NUMBER,SEMIMAJOR_AXIS,PERIOD,APOGEE,PERIGEE,DECAYED
"GENERATED VIA SPACETRACK.ORG API","18 SPCS","55092","SPACEBEE-166","PAYLOAD","U","23001CM","2024-01-02 02:59:49","331328","15.31743491","0.0013435","97.4477","66.7907","27.9793","332.2168","0","999","5543","0.0010064","0.00030942","0","4151372","0 SPACEBEE-166","1 55092U 23001CM  24002.12487652  .00030942  00000-0  10064-2 0  9991","2 55092  97.4477  66.7907 0013435  27.9793 332.2168 15.31743491 55439","2023-001CM","55092","6848.747","94.011","479.814","461.411","0"
"GENERATED VIA SPACETRACK.ORG API","18 SPCS","55092","SPACEBEE-166","PAYLOAD","U","23001CM","2024-01-02 02:59:49","331328","15.31743491","0.0013435","97.4477","66.7907","27.9793","332.2168","0","999","5543","0.0010064","0.00030942","0","4151729","0 SPACEBEE-166","1 55092U 23001CM  24002.12487652  .00030942  00000-0  10064-2 0  9991","2 55092  97.4477  66.7907 0013435  27.9793 332.2168 15.31743491 55439","2023-001CM","55092","6848.747","94.011","479.814","461.411","0"
"GENERATED VIA SPACETRACK.ORG API","18 SPCS","55092","SPACEBEE-166","PAYLOAD","U","23001CM","2024-01-02 21:48:39","360960","15.31790836","0.001337","97.4476","67.5785","25.663","334.5272","0","999","5555","0.00094644","0.00029129","0","4151993","0 SPACEBEE-166","1 55092U 23001CM  24002.90878890  .00029129  00000-0  94644-3 0  9997","2 55092  97.4476  67.5785 0013370  25.6630 334.5272 15.31790836 55553","2023-001CM","55092","6848.606","94.008","479.628","461.315","0"
"GENERATED VIA SPACETRACK.ORG API","18 SPCS","55092","SPACEBEE-166","PAYLOAD","U","23001CM","2024-01-03 04:04:55","594560","15.31806032","0.0013342","97.4473","67.8405","24.5958","335.5917","0","999","5559","0.00090589","0.00027886","0","4152193","0 SPACEBEE-166","1 55092U 23001CM  24003.17008790  .00027886  00000-0  90589-3 0  9993","2 55092  97.4473  67.8405 0013342  24.5958 335.5917 15.31806032 55599","2023-001CM","55092","6848.561","94.007","479.563","461.289","0"
"GENERATED VIA SPACETRACK.ORG API","18 SPCS","55092","SPACEBEE-166","PAYLOAD","U","23001CM","2024-01-03 04:04:55","594560","15.31806032","0.0013342","97.4473","67.8405","24.5958","335.5917","0","999","5559","0.00090589","0.00027886","0","4152560","0 SPACEBEE-166","1 55092U 23001CM  24003.17008790  .00027886  00000-0  90589-3 0  9993","2 55092  97.4473  67.8405 0013342  24.5958 335.5917 15.31806032 55599","2023-001CM","55092","6848.561","94.007","479.563","461.289","0"
"GENERATED VIA SPACETRACK.ORG API","18 SPCS","55092","SPACEBEE-166","PAYLOAD","U","23001CM","2024-01-03 15:03:23","531616","15.3182956","0.0013272","97.4475","68.2994","22.8573","337.3256","0","999","5566","0.00083637","0.00025751","0","4152812","0 SPACEBEE-166","1 55092U 23001CM  24003.62735569  .00025751  00000-0  83637-3 0  9999","2 55092  97.4475  68.2994 0013272  22.8573 337.3256 15.31829560 55660","2023-001CM","55092","6848.491","94.005","479.445","461.266","0"
"GENERATED VIA SPACETRACK.ORG API","18 SPCS","55092","SPACEBEE-166","PAYLOAD","U","23001CM","2024-01-04 03:35:54","597408","15.3186097","0.0013291","97.4475","68.8251","20.8313","339.3467","0","999","5574","0.00095442","0.0002944","0","4153368","0 SPACEBEE-166","1 55092U 23001CM  24004.14993747  .00029440  00000-0  95442-3 0  9997","2 55092  97.4475  68.8251 0013291  20.8313 339.3467 15.31860970 55748","2023-001CM","55092","6848.397","94.003","479.364","461.160","0"
"GENERATED VIA SPACETRACK.ORG API","18 SPCS","55092","SPACEBEE-166","PAYLOAD","U","23001CM","2024-01-05 03:06:50","528736","15.31913508","0.0013128","97.4477","69.8105","17.7569","342.4129","0","999","5589","0.00083961","0.00025918","0","4153840","0 SPACEBEE-166","1 55092U 23001CM  24005.12975149  .00025918  00000-0  83961-3 0  9991","2 55092  97.4477  69.8105 0013128  17.7569 342.4129 15.31913508 55898","2023-001CM","55092","6848.241","94.000","479.096","461.115","0"
"GENERATED VIA SPACETRACK.ORG API","18 SPCS","55092","SPACEBEE-166","PAYLOAD","U","23001CM","2024-01-05 09:23:04","917696","15.3192996","0.0013027","97.4476","70.073","16.8851","343.2821","0","999","5593","0.00092238","0.00028504","0","4154254","0 SPACEBEE-166","1 55092U 23001CM  24005.39102914  .00028504  00000-0  92238-3 0  9993","2 55092  97.4476  70.0730 0013027  16.8851 343.2821 15.31929960 55939","2023-001CM","55092","6848.192","93.999","478.978","461.135","0"
"GENERATED VIA SPACETRACK.ORG API","18 SPCS","55092","SPACEBEE-166","PAYLOAD","U","23001CM","2024-01-05 17:13:22","673856","15.31945047","0.0013001","97.4479","70.4016","15.9052","344.2595","0","999","5598","0.0007959","0.00024583","0","4154502","0 SPACEBEE-166","1 55092U 23001CM  24005.71762354  .00024583  00000-0  79590-3 0  9998","2 55092  97.4479  70.4016 0013001  15.9052 344.2595 15.31945047 55986","2023-001CM","55092","6848.147","93.998","478.915","461.108","0"
"GENERATED VIA SPACETRACK.ORG API","18 SPCS","55092","SPACEBEE-166","PAYLOAD","U","23001CM","2024-01-06 04:11:46","868928","15.31974478","0.0013021","97.4479","70.8614","14.3001","345.8606","0","999","5605","0.00089816","0.00027789","0","4154754","0 SPACEBEE-166","1 55092U 23001CM  24006.17484802  .00027789  00000-0  89816-3 0  9991","2 55092  97.4479  70.8614 0013021  14.3001 345.8606 15.31974478 56052","2023-001CM","55092","6848.059","93.996","478.841","461.007","0"
"GENERATED VIA SPACETRACK.ORG API","18 SPCS","55092","SPACEBEE-166","PAYLOAD","U","23001CM","2024-01-06 04:11:46","868928","15.31974478","0.0013021","97.4479","70.8614","14.3001","345.8606","0","999","5605","0.00089816","0.00027789","0","4155067","0 SPACEBEE-166","1 55092U 23001CM  24006.17484802  .00027789  00000-0  89816-3 0  9991","2 55092  97.4479  70.8614 0013021  14.3001 345.8606 15.31974478 56052","2023-001CM","55092","6848.059","93.996","478.841","461.007","0"
"GENERATED VIA SPACETRACK.ORG API","18 SPCS","55092","SPACEBEE-166","PAYLOAD","U","23001CM","2024-01-06 16:44:13","777152","15.32000654","0.0012935","97.4479","71.3867","12.5339","347.6221","0","999","5613","0.00079264","0.00024524","0","4155325","0 SPACEBEE-166","1 55092U 23001CM  24006.69738168  .00024524  00000-0  79264-3 0  9995","2 55092  97.4479  71.3867 0012935  12.5339 347.6221 15.32000654 56134","2023-001CM","55092","6847.981","93.995","478.704","460.988","0"
"GENERATED VIA SPACETRACK.ORG API","18 SPCS","55092","SPACEBEE-166","PAYLOAD","U","23001CM","2024-01-07 03:42:36","630432","15.32024625","0.0012992","97.4479","71.8466","10.8482","349.3038","0","999","5620","0.00078187","0.00024207","0","4155883","0 SPACEBEE-166","1 55092U 23001CM  24007.15459063  .00024207  00000-0  78187-3 0  9992","2 55092  97.4479  71.8466 0012992  10.8482 349.3038 15.32024625 56204","2023-001CM","55092","6847.909","93.993","478.671","460.878","0"
"GENERATED VIA SPACETRACK.ORG API","18 SPCS","55092","SPACEBEE-166","PAYLOAD","U","23001CM","2024-01-07 17:49:05","68128","15.32059868","0.0012851","97.4482","72.4374","8.754","351.3924","0","999","5629","0.00092666","0.00028752","0","4156055","0 SPACEBEE-166","1 55092U 23001CM  24007.74241977  .00028752  00000-0  92666-3 0  9997","2 55092  97.4482  72.4374 0012851   8.7540 351.3924 15.32059868 56291","2023-001CM","55092","6847.804","93.991","478.470","460.869","0"
"GENERATED VIA SPACETRACK.ORG API","18 SPCS","55092","SPACEBEE-166","PAYLOAD","U","23001CM","2024-01-07 17:49:05","68128","15.32059868","0.0012851","97.4482","72.4374","8.754","351.3924","0","999","5629","0.00092666","0.00028752","0","4156156","0 SPACEBEE-166","1 55092U 23001CM  24007.74241977  .00028752  00000-0  92666-3 0  9997","2 55092  97.4482  72.4374 0012851   8.7540 351.3924 15.32059868 56291","2023-001CM","55092","6847.804","93.991","478.470","460.869","0"
"GENERATED VIA SPACETRACK.ORG API","18 SPCS","55092","SPACEBEE-166","PAYLOAD","U","23001CM","2024-01-08 03:13:23","370528","15.32083016","0.0012867","97.4481","72.8316","7.296","352.8466","0","999","5635","0.00093501","0.00029034","0","4156666","0 SPACEBEE-166","1 55092U 23001CM  24008.13429827  .00029034  00000-0  93501-3 0  9996","2 55092  97.4481  72.8316 0012867   7.2960 352.8466 15.32083016 56353","2023-001CM","55092","6847.735","93.990","478.411","460.790","0"
"GENERATED VIA SPACETRACK.ORG API","18 SPCS","55092","SPACEBEE-166","PAYLOAD","U","23001CM","2024-01-09 02:44:06","960480","15.32143553","0.0012848","97.4477","73.817","3.9976","356.1366","0","999","5650","0.0010352","0.00032227","0","4157075","0 SPACEBEE-166","1 55092U 23001CM  24009.11396945  .00032227  00000-0  10352-2 0  9999","2 55092  97.4477  73.8170 0012848   3.9976 356.1366 15.32143553 56502","2023-001CM","55092","6847.555","93.986","478.218","460.622","0"
"GENERATED VIA SPACETRACK.ORG API","18 SPCS","55092","SPACEBEE-166","PAYLOAD","U","23001CM","2024-01-09 02:44:06","960480","15.32143553","0.0012848","97.4477","73.817","3.9976","356.1366","0","999","5650","0.0010352","0.00032227","0","4157515","0 SPACEBEE-166","1 55092U 23001CM  24009.11396945  .00032227  00000-0  10352-2 0  9999","2 55092  97.4477  73.8170 0012848   3.9976 356.1366 15.32143553 56502","2023-001CM","55092","6847.555","93.986","478.218","460.622","0"
"GENERATED VIA SPACETRACK.ORG API","18 SPCS","55092","SPACEBEE-166","PAYLOAD","U","23001CM","2024-01-09 15:16:28","709760","15.32180947","0.0012734","97.4474","74.3423","2.1857","357.9438","0","999","5658","0.0010898","0.00033977","0","4157773","0 SPACEBEE-166","1 55092U 23001CM  24009.63644340  .00033977  00000-0  10898-2 0  9999","2 55092  97.4474  74.3423 0012734   2.1857 357.9438 15.32180947 56584","2023-001CM","55092","6847.444","93.984","478.028","460.589","0"
